[{"OBJECT_NAME":"STARLINK-34047","OBJECT_ID":"2025-092T","EPOCH":"2026-03-09T07:13:20.166240","MEAN_MOTION":15.27591247,"ECCENTRICITY":9.107e-5,"INCLINATION":42.9956,"RA_OF_ASC_NODE":174.8758,"ARG_OF_PERICENTER":329.5437,"MEAN_ANOMALY":30.5361,"EPHEMERIS_TYPE":0,"CLASSIFICATION_TYPE":"U","NORAD_CAT_ID":63821,"ELEMENT_SET_NO":999,"REV_AT_EPOCH":4860,"BSTAR":0.0011082779,"MEAN_MOTION_DOT":0.00030371,"MEAN_MOTION_DDOT":0},{"OBJECT_NAME":"FENGYUN 1C DEB","OBJECT_ID":"1999-025EJQ","EPOCH":"2026-03-08T21:27:56.444256","MEAN_MOTION":15.23229897,"ECCENTRICITY":0.00101559,"INCLINATION":98.6645,"RA_OF_ASC_NODE":227.592,"ARG_OF_PERICENTER":263.6857,"MEAN_ANOMALY":96.3219,"EPHEMERIS_TYPE":0,"CLASSIFICATION_TYPE":"U","NORAD_CAT_ID":37470,"ELEMENT_SET_NO":999,"REV_AT_EPOCH":66762,"BSTAR":0.011057202,"MEAN_MOTION_DOT":0.00271626,"MEAN_MOTION_DDOT":0}]
